[{"OBJECT_NAME":"STARLINK-1068","OBJECT_ID":"2019-074BM","EPOCH":"2026-03-10T00:00:02.999808","MEAN_MOTION":15.63858052,"ECCENTRICITY":0.00031548,"INCLINATION":53.0464,"RA_OF_ASC_NODE":178.3683,"ARG_OF_PERICENTER":299.0368,"MEAN_ANOMALY":26.7565,"EPHEMERIS_TYPE":0,"CLASSIFICATION_TYPE":"U","NORAD_CAT_ID":44772,"ELEMENT_SET_NO":999,"REV_AT_EPOCH":584,"BSTAR":0.0013446991,"MEAN_MOTION_DOT":0.00130128,"MEAN_MOTION_DDOT":0},{"OBJECT_NAME":"HYDRA-W","OBJECT_ID":"2025-052BL","EPOCH":"2026-03-09T06:09:33.308928","MEAN_MOTION":15.62903885,"ECCENTRICITY":0.00091126,"INCLINATION":97.3927,"RA_OF_ASC_NODE":329.3965,"ARG_OF_PERICENTER":107.1858,"MEAN_ANOMALY":253.0398,"EPHEMERIS_TYPE":0,"CLASSIFICATION_TYPE":"U","NORAD_CAT_ID":63490,"ELEMENT_SET_NO":999,"REV_AT_EPOCH":5512,"BSTAR":0.0023110181,"MEAN_MOTION_DOT":0.00214089,"MEAN_MOTION_DDOT":0}]
